NORAD_CAT_ID,OBJECT_NAME,OBJECT_TYPE,EPOCH,MEAN_MOTION,ECCENTRICITY,INCLINATION,RA_OF_ASC_NODE,ARG_OF_PERICENTER,MEAN_ANOMALY,BSTAR,MEAN_MOTION_DOT,MEAN_MOTION_DDOT,TLE_LINE0,TLE_LINE1,TLE_LINE2,SEMIMAJOR_AXIS,PERIOD,APOGEE,PERIGEE,DECAYED
52451.0,STARLINK-3870,PAYLOAD,2022-11-16 16:45:18,15.08837981,0.0001721999999999,53.2176,96.4878,45.6013,314.512,1.4251e-05,-6.1e-07,0.0,0 STARLINK-3870,1 52451U 22049A   22320.69812971 -.00000061  00000-0  14251-4 0  9991,2 52451  53.2176  96.4878 0001722  45.6013 314.5120 15.08837981 29755,6917.887,95.438,540.943,538.56,0.0
52451.0,STARLINK-3870,PAYLOAD,2022-11-17 02:17:38,15.08821558,0.0001740999999999,53.2178,94.7054,42.7486,317.3642,-0.00010469,-1.953e-05,0.0,0 STARLINK-3870,1 52451U 22049A   22321.09558556 -.00001953  00000-0 -10469-3 0  9990,2 52451  53.2178  94.7054 0001741  42.7486 317.3642 15.08821558 29817,6917.937,95.439,541.006,538.597,0.0
52451.0,STARLINK-3870,PAYLOAD,2022-11-18 08:29:58,15.08829868,0.0001937,53.2188,89.0547,49.03100000000001,311.0849,6.360199999999999e-05,7.24e-06,0.0,0 STARLINK-3870,1 52451U 22049A   22322.35414665  .00000724  00000-0  63602-4 0  9993,2 52451  53.2188  89.0547 0001937  49.0310 311.0849 15.08829868 30000,6917.911,95.438,541.116,538.436,0.0
52451.0,STARLINK-3870,PAYLOAD,2022-11-18 16:26:53,15.08851459,0.0001978,53.2187,87.5685,49.2775,310.8389,-5.3394e-05,-1.138e-05,0.0,0 STARLINK-3870,1 52451U 22049A   22322.68533790 -.00001138  00000-0 -53394-4 0  9999,2 52451  53.2187  87.5685 0001978  49.2775 310.8389 15.08851459 30059,6917.845,95.437,541.0790000000002,538.342,0.0
52451.0,STARLINK-3870,PAYLOAD,2022-11-19 01:59:12,15.08838471,0.0002071,53.2187,85.7843,49.6883,310.4290000000001,0.00026733,3.969e-05,0.0,0 STARLINK-3870,1 52451U 22049A   22323.08278161  .00003969  00000-0  26733-3 0  9990,2 52451  53.2187  85.7843 0002071  49.6883 310.4290 15.08838471 30117,6917.885,95.438,541.183,538.317,0.0
52451.0,STARLINK-3870,PAYLOAD,2022-11-19 08:20:44,15.08846227,0.0002068,53.2183,84.5946,49.8693,310.248,0.00030267,4.533e-05,0.0,0 STARLINK-3870,1 52451U 22049A   22323.34773871  .00004533  00000-0  30267-3 0  9992,2 52451  53.2183  84.5946 0002068  49.8693 310.2480 15.08846227 29992,6917.861,95.437,541.1569999999998,538.2959999999998,0.0
52451.0,STARLINK-3870,PAYLOAD,2022-11-19 17:53:04,15.08841972,0.0002093,53.2179,82.8111,44.8814,315.2347,0.00018726,2.693e-05,0.0,0 STARLINK-3870,1 52451U 22049A   22323.74518716  .00002693  00000-0  18726-3 0  9992,2 52451  53.2179  82.8111 0002093  44.8814 315.2347 15.08841972 30216,6917.874,95.437,541.187,538.2909999999998,0.0
52451.0,STARLINK-3870,PAYLOAD,2022-11-20 12:57:40,15.08851654,0.0001997,53.2201,79.2424,50.6066,309.5103,0.00013138,1.804e-05,0.0,0 STARLINK-3870,1 52451U 22049A   22324.54005640  .00001804  00000-0  13138-3 0  9993,2 52451  53.2201  79.2424 0001997  50.6066 309.5103 15.08851654 30332,6917.845,95.437,541.091,538.328,0.0
52451.0,STARLINK-3870,PAYLOAD,2022-11-20 17:43:50,15.08845935,0.000203,53.2195,78.3503,48.1274,311.9891,6.63e-05,7.67e-06,0.0,0 STARLINK-3870,1 52451U 22049A   22324.73878012  .00000767  00000-0  66300-4 0  9992,2 52451  53.2195  78.3503 0002030  48.1274 311.9891 15.08845935 30206,6917.861999999999,95.437,541.132,538.323,0.0
52451.0,STARLINK-3870,PAYLOAD,2022-11-21 06:26:55,15.08848073,0.0001962,53.2192,75.9715,44.4004,315.7145,3.0627e-05,1.99e-06,0.0,0 STARLINK-3870,1 52451U 22049A   22325.26869672  .00000199  00000-0  30627-4 0  9995,2 52451  53.2192  75.9715 0001962  44.4004 315.7145 15.08848073 30440,6917.856,95.437,541.078,538.363,0.0
52451.0,STARLINK-3870,PAYLOAD,2022-11-21 11:13:04,15.08843816,0.0001919,53.219,75.079,41.7606,318.3533,3.0522e-05,1.98e-06,0.0,0 STARLINK-3870,1 52451U 22049A   22325.46741774  .00000198  00000-0  30522-4 0  9992,2 52451  53.2190  75.0790 0001919  41.7606 318.3533 15.08843816 30318,6917.869000000002,95.437,541.061,538.406,0.0
52451.0,STARLINK-3870,PAYLOAD,2022-11-21 14:23:51,15.0884689,0.0002007,53.2185,74.4847,45.1235,314.992,-1.3948e-05,-5.1e-06,0.0,0 STARLINK-3870,1 52451U 22049A   22325.59989645 -.00000510  00000-0 -13948-4 0  9990,2 52451  53.2185  74.4847 0002007  45.1235 314.9920 15.08846890 30332,6917.859,95.437,541.113,538.336,0.0
52451.0,STARLINK-3870,PAYLOAD,2022-11-21 23:56:09,15.08841261,0.0002017,53.2185,72.7007,41.1261,318.9883,6.515899999999999e-05,7.49e-06,0.0,0 STARLINK-3870,1 52451U 22049A   22325.99733724  .00000749  00000-0  65159-4 0  9992,2 52451  53.2185  72.7007 0002017  41.1261 318.9883 15.08841261 30550,6917.877,95.437,541.137,538.346,0.0
52451.0,STARLINK-3870,PAYLOAD,2022-11-22 14:14:38,15.08840083,0.0002058,53.219,70.024,42.0086,318.1064,2.9523e-05,1.82e-06,0.0,0 STARLINK-3870,1 52451U 22049A   22326.59349633  .00000182  00000-0  29523-4 0  9997,2 52451  53.2190  70.0240 0002058  42.0086 318.1064 15.08840083 30482,6917.88,95.438,541.169,538.321,0.0
52451.0,STARLINK-3870,PAYLOAD,2022-11-23 06:08:29,15.08839108,0.0002045,53.2185,67.0504,40.8736,319.2409,2.693e-05,1.4e-06,0.0,0 STARLINK-3870,1 52451U 22049A   22327.25589672  .00000140  00000-0  26930-4 0  9993,2 52451  53.2185  67.0504 0002045  40.8736 319.2409 15.08839108 30749,6917.8830000000025,95.438,541.163,538.3330000000002,0.0
52451.0,STARLINK-3870,PAYLOAD,2022-11-23 10:54:38,15.08838546,0.0002056,53.2185,66.1582,41.0342,319.0804,3.1116e-05,2.07e-06,0.0,0 STARLINK-3870,1 52451U 22049A   22327.45461703  .00000207  00000-0  31116-4 0  9995,2 52451  53.2185  66.1582 0002056  41.0342 319.0804 15.08838546 30611,6917.885,95.438,541.172,538.328,0.0
52451.0,STARLINK-3870,PAYLOAD,2022-11-24 05:59:17,15.08834217,0.0002038,53.2183,62.5899,37.5744,322.539,-3.2182e-06,-3.39e-06,0.0,0 STARLINK-3870,1 52451U 22049A   22328.24950335 -.00000339  00000-0 -32182-5 0  9990,2 52451  53.2183  62.5899 0002038  37.5744 322.5390 15.08834217 30896,6917.898,95.438,541.173,538.3530000000002,0.0
52451.0,STARLINK-3870,PAYLOAD,2022-11-24 10:45:26,15.08836498,0.0002046,53.2189,61.6983,38.61,321.5038,1.3823e-05,-6.8e-07,0.0,0 STARLINK-3870,1 52451U 22049A   22328.44822194 -.00000068  00000-0  13823-4 0  9991,2 52451  53.2189  61.6983 0002046  38.6100 321.5038 15.08836498 30760,6917.891,95.438,541.1709999999998,538.341,0.0
52451.0,STARLINK-3870,PAYLOAD,2022-11-24 13:56:12,15.08837096,0.0002046,53.2192,61.1038,37.9616,322.152,1.5021e-05,-4.9e-07,0.0,0 STARLINK-3870,1 52451U 22049A   22328.58070181 -.00000049  00000-0  15021-4 0  9998,2 52451  53.2192  61.1038 0002046  37.9616 322.1520 15.08837096 30784,6917.889,95.438,541.17,538.339,0.0
52451.0,STARLINK-3870,PAYLOAD,2022-11-25 05:50:03,15.08843894,0.0001995,53.2192,58.1302,34.8122,325.3,0.00011755,1.583e-05,0.0,0 STARLINK-3870,1 52451U 22049A   22329.24309329  .00001583  00000-0  11755-3 0  9993,2 52451  53.2192  58.1302 0001995  34.8122 325.3000 15.08843894 31045,6917.868,95.437,541.114,538.3530000000002,0.0
52451.0,STARLINK-3870,PAYLOAD,2022-11-25 12:11:36,15.08846485,0.0002034,53.2195,56.9408,36.3287,323.7843,1.3601e-05,-7.2e-07,0.0,0 STARLINK-3870,1 52451U 22049A   22329.50805610 -.00000072  00000-0  13601-4 0  9992,2 52451  53.2195  56.9408 0002034  36.3287 323.7843 15.08846485 30927,6917.861,95.437,541.133,538.318,0.0
52451.0,STARLINK-3870,PAYLOAD,2022-11-25 13:46:59,15.08839718,0.0002072,53.2192,56.6434,31.7023,328.4094,9.912e-05,1.29e-05,0.0,0 STARLINK-3870,1 52451U 22049A   22329.57429795  .00001290  00000-0  99120-4 0  9997,2 52451  53.2192  56.6434 0002072  31.7023 328.4094 15.08839718 31099,6917.880999999999,95.438,541.18,538.313,0.0
52451.0,STARLINK-3870,PAYLOAD,2022-11-26 12:02:22,15.0884486,0.0002072,53.2193,52.4806,36.5534,323.5599,0.00012479,1.699e-05,0.0,0 STARLINK-3870,1 52451U 22049A   22330.50165262  .00001699  00000-0  12479-3 0  9992,2 52451  53.2193  52.4806 0002072  36.5534 323.5599 15.08844860 31075,6917.866,95.437,541.164,538.297,0.0
52451.0,STARLINK-3870,PAYLOAD,2022-11-26 15:13:08,15.08848314,0.0002104,53.2191,51.8858,36.025,324.0884,7.499e-05,9.06e-06,0.0,0 STARLINK-3870,1 52451U 22049A   22330.63413131  .00000906  00000-0  74990-4 0  9994,2 52451  53.2191  51.8858 0002104  36.0250 324.0884 15.08848314 31250,6917.855,95.437,541.175,538.264,0.0
52451.0,STARLINK-3870,PAYLOAD,2022-11-27 08:42:24,15.08831169,0.0002015,53.2193,48.615,30.7225,329.3885,-8.9345e-05,-1.7100000000000002e-05,0.0,0 STARLINK-3870,1 52451U 22049A   22331.36278216 -.00001710  00000-0 -89345-4 0  9994,2 52451  53.2193  48.6150 0002015  30.7225 329.3885 15.08831169 31366,6917.906999999997,95.438,541.1659999999998,538.378,0.0
52451.0,STARLINK-3870,PAYLOAD,2022-11-27 15:03:56,15.08830847,0.0001945,53.2197,47.4248,39.9428,320.1707,-5.8751e-05,-1.223e-05,0.0,0 STARLINK-3870,1 52451U 22049A   22331.62774204 -.00001223  00000-0 -58751-4 0  9997,2 52451  53.2197  47.4248 0001945  39.9428 320.1707 15.08830847 31243,6917.908,95.438,541.119,538.428,0.0
52451.0,STARLINK-3870,PAYLOAD,2022-11-28 05:22:24,15.08840088,0.0002087,53.2198,44.7495,34.809,325.3038,-2.4602e-05,-6.8e-06,0.0,0 STARLINK-3870,1 52451U 22049A   22332.22389656 -.00000680  00000-0 -24602-4 0  9991,2 52451  53.2198  44.7495 0002087  34.8090 325.3038 15.08840088 31494,6917.88,95.438,541.189,538.3009999999998,0.0
52451.0,STARLINK-3870,PAYLOAD,2022-11-28 13:19:20,15.08832877,0.0002128,53.2196,43.2625,32.5274,327.5849,-6.7877e-05,-1.368e-05,0.0,0 STARLINK-3870,1 52451U 22049A   22332.55510331 -.00001368  00000-0 -67877-4 0  9998,2 52451  53.2196  43.2625 0002128  32.5274 327.5849 15.08832877 31543,6917.901999999999,95.438,541.239,538.295,0.0
52451.0,STARLINK-3870,PAYLOAD,2022-11-29 05:13:11,15.08831109,0.0002,53.2197,40.2881,31.7509,328.3604,0.00013063,1.791e-05,0.0,0 STARLINK-3870,1 52451U 22049A   22333.21749865  .00001791  00000-0  13063-3 0  9993,2 52451  53.2197  40.2881 0002000  31.7509 328.3604 15.08831109 31642,6917.908,95.438,541.156,538.389,0.0
